[{"OBJECT_NAME":"ALOS (DAICHI)","OBJECT_ID":"2006-002A","EPOCH":"2026-04-29T06:51:20.916000","MEAN_MOTION":14.69947303,"ECCENTRICITY":0.00020091,"INCLINATION":98.1292,"RA_OF_ASC_NODE":75.0199,"ARG_OF_PERICENTER":101.0228,"MEAN_ANOMALY":259.1203,"EPHEMERIS_TYPE":0,"CLASSIFICATION_TYPE":"U","NORAD_CAT_ID":28931,"ELEMENT_SET_NO":999,"REV_AT_EPOCH":8091,"BSTAR":0.00021249013,"MEAN_MOTION_DOT":1.223e-5,"MEAN_MOTION_DDOT":0},{"OBJECT_NAME":"H-2A R/B","OBJECT_ID":"2006-002B","EPOCH":"2026-04-29T00:06:05.692320","MEAN_MOTION":15.17440993,"ECCENTRICITY":0.00523592,"INCLINATION":98.25,"RA_OF_ASC_NODE":270.427,"ARG_OF_PERICENTER":71.0892,"MEAN_ANOMALY":289.6005,"EPHEMERIS_TYPE":0,"CLASSIFICATION_TYPE":"U","NORAD_CAT_ID":28932,"ELEMENT_SET_NO":999,"REV_AT_EPOCH":10206,"BSTAR":0.00038168841,"MEAN_MOTION_DOT":7.833e-5,"MEAN_MOTION_DDOT":0},{"OBJECT_NAME":"RESURS-DK 1","OBJECT_ID":"2006-021A","EPOCH":"2026-04-29T05:56:34.300608","MEAN_MOTION":15.13005153,"ECCENTRICITY":0.00036057,"INCLINATION":69.9314,"RA_OF_ASC_NODE":106.216,"ARG_OF_PERICENTER":335.8222,"MEAN_ANOMALY":24.2775,"EPHEMERIS_TYPE":0,"CLASSIFICATION_TYPE":"U","NORAD_CAT_ID":29228,"ELEMENT_SET_NO":999,"REV_AT_EPOCH":9517,"BSTAR":0.00015764101,"MEAN_MOTION_DOT":2.683e-5,"MEAN_MOTION_DDOT":0},{"OBJECT_NAME":"CZ-4B R/B","OBJECT_ID":"2006-046C","EPOCH":"2026-04-29T03:08:03.773472","MEAN_MOTION":15.17384099,"ECCENTRICITY":0.00345794,"INCLINATION":97.5503,"RA_OF_ASC_NODE":163.893,"ARG_OF_PERICENTER":92.9175,"MEAN_ANOMALY":267.6016,"EPHEMERIS_TYPE":0,"CLASSIFICATION_TYPE":"U","NORAD_CAT_ID":29507,"ELEMENT_SET_NO":999,"REV_AT_EPOCH":6769,"BSTAR":0.00026443498,"MEAN_MOTION_DOT":5.294e-5,"MEAN_MOTION_DDOT":0},{"OBJECT_NAME":"CZ-2C R/B","OBJECT_ID":"2007-010B","EPOCH":"2026-04-29T07:25:09.386688","MEAN_MOTION":14.20263491,"ECCENTRICITY":0.00597383,"INCLINATION":98.4039,"RA_OF_ASC_NODE":230.065,"ARG_OF_PERICENTER":146.1817,"MEAN_ANOMALY":214.3193,"EPHEMERIS_TYPE":0,"CLASSIFICATION_TYPE":"U","NORAD_CAT_ID":31114,"ELEMENT_SET_NO":999,"REV_AT_EPOCH":98690,"BSTAR":7.1109069e-5,"MEAN_MOTION_DOT":1.14e-6,"MEAN_MOTION_DDOT":0},{"OBJECT_NAME":"COSMO-SKYMED 1","OBJECT_ID":"2007-023A","EPOCH":"2026-04-29T06:33:21.015360","MEAN_MOTION":14.96860848,"ECCENTRICITY":0.00016744,"INCLINATION":97.8866,"RA_OF_ASC_NODE":310.7224,"ARG_OF_PERICENTER":98.6821,"MEAN_ANOMALY":261.459,"EPHEMERIS_TYPE":0,"CLASSIFICATION_TYPE":"U","NORAD_CAT_ID":31598,"ELEMENT_SET_NO":999,"REV_AT_EPOCH":2247,"BSTAR":0.00030022521,"MEAN_MOTION_DOT":3.383e-5,"MEAN_MOTION_DDOT":0},{"OBJECT_NAME":"COSMOS 2428","OBJECT_ID":"2007-029A","EPOCH":"2026-04-29T05:22:27.460416","MEAN_MOTION":14.12944414,"ECCENTRICITY":0.00089152,"INCLINATION":70.9393,"RA_OF_ASC_NODE":97.2721,"ARG_OF_PERICENTER":220.3734,"MEAN_ANOMALY":139.6727,"EPHEMERIS_TYPE":0,"CLASSIFICATION_TYPE":"U","NORAD_CAT_ID":31792,"ELEMENT_SET_NO":999,"REV_AT_EPOCH":97123,"BSTAR":-7.7726213e-5,"MEAN_MOTION_DOT":-1.93e-6,"MEAN_MOTION_DDOT":0},{"OBJECT_NAME":"SL-16 R/B","OBJECT_ID":"2007-029B","EPOCH":"2026-04-29T06:37:17.885280","MEAN_MOTION":14.14847136,"ECCENTRICITY":0.00025121,"INCLINATION":70.9758,"RA_OF_ASC_NODE":66.0451,"ARG_OF_PERICENTER":267.959,"MEAN_ANOMALY":255.4226,"EPHEMERIS_TYPE":0,"CLASSIFICATION_TYPE":"U","NORAD_CAT_ID":31793,"ELEMENT_SET_NO":999,"REV_AT_EPOCH":97252,"BSTAR":0.00020209254,"MEAN_MOTION_DOT":3.42e-6,"MEAN_MOTION_DDOT":0},{"OBJECT_NAME":"KORONAS-FOTON","OBJECT_ID":"2009-003A","EPOCH":"2026-04-29T06:00:03.828384","MEAN_MOTION":15.44668843,"ECCENTRICITY":0.00095201,"INCLINATION":82.4316,"RA_OF_ASC_NODE":223.2601,"ARG_OF_PERICENTER":338.0776,"MEAN_ANOMALY":22.0063,"EPHEMERIS_TYPE":0,"CLASSIFICATION_TYPE":"U","NORAD_CAT_ID":33504,"ELEMENT_SET_NO":999,"REV_AT_EPOCH":95354,"BSTAR":0.0002721448,"MEAN_MOTION_DOT":0.00012745,"MEAN_MOTION_DDOT":0},{"OBJECT_NAME":"CZ-2C R/B","OBJECT_ID":"2011-030B","EPOCH":"2026-04-29T05:06:45.025632","MEAN_MOTION":14.81362764,"ECCENTRICITY":0.00521956,"INCLINATION":97.8621,"RA_OF_ASC_NODE":75.4995,"ARG_OF_PERICENTER":184.3369,"MEAN_ANOMALY":272.3118,"EPHEMERIS_TYPE":0,"CLASSIFICATION_TYPE":"U","NORAD_CAT_ID":37731,"ELEMENT_SET_NO":999,"REV_AT_EPOCH":79757,"BSTAR":0.00013985779,"MEAN_MOTION_DOT":1.064e-5,"MEAN_MOTION_DDOT":0},{"OBJECT_NAME":"H-2A R/B","OBJECT_ID":"2012-025E","EPOCH":"2026-04-28T21:58:03.806112","MEAN_MOTION":14.95453618,"ECCENTRICITY":0.0044923,"INCLINATION":98.4788,"RA_OF_ASC_NODE":90.0219,"ARG_OF_PERICENTER":147.0551,"MEAN_ANOMALY":213.3482,"EPHEMERIS_TYPE":0,"CLASSIFICATION_TYPE":"U","NORAD_CAT_ID":38341,"ELEMENT_SET_NO":999,"REV_AT_EPOCH":75572,"BSTAR":0.00023656,"MEAN_MOTION_DOT":2.599e-5,"MEAN_MOTION_DDOT":0},{"OBJECT_NAME":"SHIJIAN-16 (SJ-16)","OBJECT_ID":"2013-057A","EPOCH":"2026-04-29T07:22:55.516800","MEAN_MOTION":14.92481864,"ECCENTRICITY":0.00163071,"INCLINATION":74.9706,"RA_OF_ASC_NODE":89.249,"ARG_OF_PERICENTER":343.8173,"MEAN_ANOMALY":16.2492,"EPHEMERIS_TYPE":0,"CLASSIFICATION_TYPE":"U","NORAD_CAT_ID":39358,"ELEMENT_SET_NO":999,"REV_AT_EPOCH":67905,"BSTAR":7.0848934e-5,"MEAN_MOTION_DOT":6.99e-6,"MEAN_MOTION_DDOT":0},{"OBJECT_NAME":"SL-4 R/B","OBJECT_ID":"2014-021B","EPOCH":"2026-04-29T05:49:59.362752","MEAN_MOTION":15.40782624,"ECCENTRICITY":0.00925445,"INCLINATION":51.6055,"RA_OF_ASC_NODE":90.3335,"ARG_OF_PERICENTER":287.9781,"MEAN_ANOMALY":71.1133,"EPHEMERIS_TYPE":0,"CLASSIFICATION_TYPE":"U","NORAD_CAT_ID":39679,"ELEMENT_SET_NO":999,"REV_AT_EPOCH":66406,"BSTAR":0.00026728714,"MEAN_MOTION_DOT":0.00012519,"MEAN_MOTION_DDOT":0},{"OBJECT_NAME":"ALOS-2","OBJECT_ID":"2014-029A","EPOCH":"2026-04-29T07:23:53.191392","MEAN_MOTION":14.79475188,"ECCENTRICITY":0.00016846,"INCLINATION":97.9205,"RA_OF_ASC_NODE":217.1711,"ARG_OF_PERICENTER":87.1855,"MEAN_ANOMALY":272.9549,"EPHEMERIS_TYPE":0,"CLASSIFICATION_TYPE":"U","NORAD_CAT_ID":39766,"ELEMENT_SET_NO":999,"REV_AT_EPOCH":64435,"BSTAR":0.0002362097,"MEAN_MOTION_DOT":1.713e-5,"MEAN_MOTION_DDOT":0},{"OBJECT_NAME":"YAOGAN-29","OBJECT_ID":"2015-069A","EPOCH":"2026-04-29T07:55:30.770400","MEAN_MOTION":14.8304521,"ECCENTRICITY":0.00019428,"INCLINATION":98.0074,"RA_OF_ASC_NODE":147.879,"ARG_OF_PERICENTER":133.4656,"MEAN_ANOMALY":226.6719,"EPHEMERIS_TYPE":0,"CLASSIFICATION_TYPE":"U","NORAD_CAT_ID":41038,"ELEMENT_SET_NO":999,"REV_AT_EPOCH":56338,"BSTAR":6.3483944e-5,"MEAN_MOTION_DOT":4.62e-6,"MEAN_MOTION_DDOT":0},{"OBJECT_NAME":"ASTRO-H (HITOMI)","OBJECT_ID":"2016-012A","EPOCH":"2026-04-29T03:09:07.233408","MEAN_MOTION":15.1029546,"ECCENTRICITY":0.00093772,"INCLINATION":31.0004,"RA_OF_ASC_NODE":30.9533,"ARG_OF_PERICENTER":119.8657,"MEAN_ANOMALY":240.2914,"EPHEMERIS_TYPE":0,"CLASSIFICATION_TYPE":"U","NORAD_CAT_ID":41337,"ELEMENT_SET_NO":999,"REV_AT_EPOCH":55986,"BSTAR":0.00018991984,"MEAN_MOTION_DOT":3.285e-5,"MEAN_MOTION_DDOT":0}]
