ALOS (DAICHI)           
1 28931U 06002A   26119.28565875  .00001223  00000+0  21249-3 0  9994
2 28931  98.1292  75.0199 0002009 101.0228 259.1203 14.69947303 80918
H-2A R/B                
1 28932U 06002B   26119.00423255  .00007833  00000+0  38169-3 0  9992
2 28932  98.2500 270.4270 0052359  71.0892 289.6005 15.17440993102065
RESURS-DK 1             
1 29228U 06021A   26119.24761922  .00002683  00000+0  15764-3 0  9998
2 29228  69.9314 106.2160 0003605 335.8222  24.2775 15.13005153 95175
CZ-4B R/B               
1 29507U 06046C   26119.13059923  .00005294  00000+0  26443-3 0  9991
2 29507  97.5503 163.8930 0034579  92.9175 267.6016 15.17384099 67698
CZ-2C R/B               
1 31114U 07010B   26119.30913642  .00000114  00000+0  71109-4 0  9992
2 31114  98.4039 230.0650 0059738 146.1817 214.3193 14.20263491986908
COSMO-SKYMED 1          
1 31598U 07023A   26119.27315990  .00003383  00000+0  30023-3 0  9990
2 31598  97.8866 310.7224 0001674  98.6821 261.4590 14.96860848 22479
COSMOS 2428             
1 31792U 07029A   26119.22392894 -.00000193  00000+0 -77726-4 0  9995
2 31792  70.9393  97.2721 0008915 220.3734 139.6727 14.12944414971238
SL-16 R/B               
1 31793U 07029B   26119.27590145  .00000342  00000+0  20209-3 0  9997
2 31793  70.9758  66.0451 0002512 267.9590 255.4226 14.14847136972521
KORONAS-FOTON           
1 33504U 09003A   26119.25004431  .00012745  00000+0  27214-3 0  9992
2 33504  82.4316 223.2601 0009520 338.0776  22.0063 15.44668843953545
CZ-2C R/B               
1 37731U 11030B   26119.21302113  .00001064  00000+0  13986-3 0  9998
2 37731  97.8621  75.4995 0052195 184.3369 272.3118 14.81362764797572
H-2A R/B                
1 38341U 12025E   26118.91532183  .00002599  00000+0  23656-3 0  9998
2 38341  98.4788  90.0219 0044923 147.0551 213.3482 14.95453618755726
SHIJIAN-16 (SJ-16)      
1 39358U 13057A   26119.30758700  .00000699  00000+0  70849-4 0  9998
2 39358  74.9706  89.2490 0016307 343.8173  16.2492 14.92481864679059
SL-4 R/B                
1 39679U 14021B   26119.24304818  .00012519  00000+0  26729-3 0  9997
2 39679  51.6055  90.3335 0092544 287.9781  71.1133 15.40782624664064
ALOS-2                  
1 39766U 14029A   26119.30825453  .00001713  00000+0  23621-3 0  9994
2 39766  97.9205 217.1711 0001684  87.1855 272.9549 14.79475188644352
YAOGAN-29               
1 41038U 15069A   26119.33021725  .00000462  00000+0  63484-4 0  9999
2 41038  98.0074 147.8790 0001942 133.4656 226.6719 14.83045210563382
ASTRO-H (HITOMI)        
1 41337U 16012A   26119.13133372  .00003285  00000+0  18992-3 0  9999
2 41337  31.0004  30.9533 0009377 119.8657 240.2914 15.10295460559862
